LEMUR-1                 
1 40044U 14033AL  23060.22138849  .00003330  00000+0  48031-3 0  9998
2 40044  97.6611 240.0727 0058317  47.8671 312.7473 14.75739631467733
LEMUR-2-XIAOQING        
1 41871U 16062C   23059.71327673  .00209405  00000+0  19248-2 0  9996
2 41871  51.6248 169.5826 0005250 333.7120  26.3609 15.66472756349604
LEMUR-2-SOKOLSKY        
1 41872U 16062D   23060.45405339  .00258135  00000+0  22552-2 0  9992
2 41872  51.6617 176.7976 0008211 323.3820  36.6615 15.67549802349680
LEMUR-2-ANUBHAVTHAKUR   
1 41873U 16062E   23059.82002296  .00023671  00000+0  72731-3 0  9997
2 41873  51.6767 249.8024 0006668 119.8338 240.3308 15.33564708348585
LEMUR-2-WINGO           
1 41874U 16062F   23060.04861777  .00166472  00000+0  17765-2 0  9993
2 41874  51.6385 181.8129 0006950   6.6884 353.4202 15.62845632349485
LEMUR-2-JOBANPUTRA      
1 41991U 17008AV  23060.15839940  .00070708  00000+0  13746-2 0  9994
2 41991  97.2236 123.0627 0004274  41.2671 318.8902 15.47353418335625
LEMUR-2-SPIRE-MINIONS   
1 41992U 17008AW  23060.14939155  .00108353  00000+0  14263-2 0  9996
2 41992  97.2297 129.6179 0001402 350.1607   9.9622 15.58087964335997
LEMUR-2-SATCHMO         
1 41993U 17008AX  23059.91805140  .00045388  00000+0  10233-2 0  9997
2 41993  97.2198 122.6841 0005108  48.5992 311.5695 15.43101070335574
LEMUR-2-SMITA-SHARAD    
1 41994U 17008AY  23059.93079460  .00086816  00000+0  12610-2 0  9990
2 41994  97.2323 129.0331 0002536  24.1310 336.0063 15.55502684335947
LEMUR-2-RDEATON         
1 41995U 17008AZ  23060.15967447  .00036399  00000+0  86140-3 0  9999
2 41995  97.2282 123.1021 0005857  58.0564 302.1252 15.41689730336284
LEMUR-2-TACHIKOMA       
1 41996U 17008BA  23060.48690435  .00087331  00000+0  13484-2 0  9998
2 41996  97.2383 129.6443 0002630  30.6023 329.5384 15.53820594335880
LEMUR-2-NOGUECORREIG    
1 41997U 17008BB  23060.41525119  .00139760  00000+0  18446-2 0  9995
2 41997  97.2289 130.4528 0002467  31.4998 328.6405 15.57905328336044
LEMUR-2-MIA-GRACE       
1 41998U 17008BC  23060.11141792  .00038446  00000+0  91277-3 0  9997
2 41998  97.2266 122.5395 0005816  60.7943 299.3885 15.41581552335496
LEMUR-2-ANGELA          
1 42752U 17019B   23060.36432919  .00250188  00000+0  18069-2 0  9995
2 42752  51.6223  46.0977 0003203  73.1709 286.9640 15.72194524321055
LEMUR-2-ROBMOORE        
1 42754U 17019D   23060.27274678  .00163534  00000+0  16677-2 0  9994
2 42754  51.6270  52.2000 0002781  49.3627 310.7609 15.64033785320949
LEMUR-2-SHAINAJOHL      
1 42771U 17036G   23059.60757033  .00059348  00000+0  13108-2 0  9991
2 42771  97.1682  99.8397 0010294 114.7867 245.4453 15.43606750316285
LEMUR-2-XUENITERENCE    
1 42772U 17036H   23059.85019934  .00082417  00000+0  14640-2 0  9995
2 42772  97.1496 100.7805 0008700 108.5400 251.6798 15.49868533316420
LEMUR-2-LUCYBRYCE       
1 42773U 17036J   23059.85428498  .00038718  00000+0  97588-3 0  9993
2 42773  97.1730  99.5450 0010590 117.1294 243.1034 15.39722430316232
LEMUR-2-KUNGFOO         
1 42774U 17036K   23059.60874746  .00060633  00000+0  13113-2 0  9990
2 42774  97.1669 100.3966 0009734 112.2269 248.0014 15.44231595316317
LEMUR-2-LYNSEY-SYMO     
1 42779U 17036Q   23059.88199405  .00081818  00000+0  14661-2 0  9994
2 42779  97.1693 106.4389 0009419 119.1041 241.1155 15.49614954316688
LEMUR-2-LISASAURUS      
1 42780U 17036R   23059.62134880  .00066871  00000+0  13670-2 0  9995
2 42780  97.1668 101.7825 0008406 119.6218 240.5870 15.45877154316373
LEMUR-2-SAM-AMELIA      
1 42781U 17036S   23060.06476793  .00021438  00000+0  61586-3 0  9998
2 42781  97.1760 101.6099 0010535 120.3947 239.8339 15.35791538316363
LEMUR-2-MCPEAKE         
1 42782U 17036T   23059.61491705  .00054180  00000+0  11871-2 0  9999
2 42782  97.1683 103.4291 0008756 114.7896 245.4264 15.43884018316482
LEMUR-2-GREENBERG       
1 42837U 17042N   23060.11967542  .00007766  00000+0  70166-3 0  9992
2 42837  97.4026 268.4985 0011150 210.9612 149.0954 14.95679216306602
LEMUR-2-ANDIS           
1 42838U 17042P   23060.11180885  .00007815  00000+0  70570-3 0  9994
2 42838  97.4005 268.3997 0011376 211.0625 148.9926 14.95700187306607
LEMUR-2-MONSON          
1 42839U 17042Q   23060.10525063  .00007844  00000+0  71329-3 0  9990
2 42839  97.4021 268.1141 0011137 212.1543 147.9000 14.95425973306576
LEMUR-2-FURIAUS         
1 42840U 17042R   23060.13801604  .00008746  00000+0  79711-3 0  9998
2 42840  97.4064 268.4953 0011246 213.0023 147.0498 14.95301587306579
LEMUR-2-PETERG          
1 42841U 17042S   23060.11905478  .00005819  00000+0  52990-3 0  9999
2 42841  97.4068 269.7401 0011080 207.8444 152.2186 14.95471086306642
LEMUR-2-DEMBITZ         
1 42842U 17042T   23060.11118303  .00008028  00000+0  72275-3 0  9996
2 42842  97.4047 269.6391 0011109 208.2797 151.7823 14.95811155306653
LEMUR-2-ZACHARY         
1 42845U 17042W   23060.10512251  .00009509  00000+0  82833-3 0  9994
2 42845  97.3926 268.7667 0011172 209.3142 150.7455 14.97051290306718
LEMUR-2-MCCAFFERTY      
1 43123U 18004N   23060.23315477  .00188449  00000+0  20240-2 0  9992
2 43123  97.3447 147.8017 0003774 193.4859 166.6299 15.63152899286180
LEMUR-2-PETERWEBSTER    
1 43124U 18004P   23060.20793557  .00123091  00000+0  16806-2 0  9994
2 43124  97.3497 146.9643 0004628 155.8353 204.3120 15.57043855286133
LEMUR-2-BROWNCOW        
1 43125U 18004Q   23059.78928605  .00196017  00000+0  17867-2 0  9996
2 43125  97.3550 149.7098 0003137 206.2679 153.8423 15.67279954286243
LEMUR-2-DAVEWILSON      
1 43126U 18004R   23060.46596550  .00235259  00000+0  19690-2 0  9992
2 43126  97.3549 150.5083 0003984 186.1730 173.9483 15.69261144286366
LEMUR-2-MARSHALL        
1 43165U 18010C   23060.34279665  .00112963  00000+0  24445-2 0  9994
2 43165  82.9094 180.1541 0016855 134.4218 225.8414 15.43889195283867
LEMUR-2-TALLHAMN-ATC    
1 43167U 18010E   23059.79109650  .00059364  00000+0  17205-2 0  9990
2 43167  82.9149 188.5408 0016709 160.1323 200.0575 15.35168927283299
LEMUR-2-JIN-LUEN        
1 43182U 18014C   23060.25681732  .00010486  00000+0  80444-3 0  9998
2 43182  97.6304 324.3118 0016699 158.1201 202.0740 15.01870065277396
LEMUR-2-URAMCHANSOL     
1 43183U 18014D   23059.97346490  .00009247  00000+0  70167-3 0  9999
2 43183  97.6275 324.3580 0017178 149.1014 211.1226 15.02317219277367
LEMUR-2-KADI            
1 43184U 18014E   23060.23896601  .00013014  00000+0  10047-2 0  9992
2 43184  97.6163 324.2854 0016683 133.1614 227.1008 15.01573645277389
LEMUR-2-THENICKMOLO     
1 43185U 18014F   23060.29662696  .00011660  00000+0  89489-3 0  9996
2 43185  97.6130 324.6811 0010243 134.6351 225.5710 15.01894670277400
LEMUR-2-ZUPANSKI        
1 43695U 18088F   23060.22526785  .00059313  00000+0  14086-2 0  9991
2 43695  85.0254 140.7048 0009964 249.7942 110.2240 15.41404200239210
LEMUR-2-CHANUSIAK       
1 43697U 18088H   23060.22162795  .00081361  00000+0  17043-2 0  9994
2 43697  85.0305 140.4698 0011498 244.0019 116.0051 15.45053015239408
LEMUR-2-CHRISTINAHOLT   
1 43882U 18111G   23060.16544431  .00012875  00000+0  96479-3 0  9996
2 43882  97.6589 329.1959 0010978 140.3266 219.8764 15.02775420226264
LEMUR-2-TINYKEV         
1 43883U 18111H   23060.16585941  .00016338  00000+0  11941-2 0  9996
2 43883  97.6400 329.2300 0011478 134.4471 225.7695 15.03657499226283
LEMUR-2-REMY-COLTON     
1 43884U 18111J   23060.26205166  .00014232  00000+0  10527-2 0  9996
2 43884  97.6528 330.0247 0004269 102.6438 257.5264 15.03283647226325
LEMUR-2-GUSTAVO         
1 43885U 18111K   23060.15754737  .00012562  00000+0  93801-3 0  9999
2 43885  97.6518 329.4530 0017671 142.8519 217.3932 15.02835831226276
LEMUR-2-ZO              
1 43886U 18111L   23059.74205855  .00014505  00000+0  10834-2 0  9998
2 43886  97.6433 329.2274 0015696 157.7179 202.4731 15.02819180226224
LEMUR-2-NATALIEMURRAY   
1 43887U 18111M   23060.20884988  .00014082  00000+0  10455-2 0  9991
2 43887  97.6550 330.1865 0014522 108.8266 251.4536 15.03067737228316
LEMUR-2-SARAHBETTYBOO   
1 43888U 18111N   23060.28051920  .00014442  00000+0  10642-2 0  9990
2 43888  97.6863 331.0330 0012978 186.6049 173.5007 15.03364540228338
LEMUR-2-DAISY-HARPER    
1 43889U 18111P   23060.27610088  .00014132  00000+0  10420-2 0  9996
2 43889  97.6781 331.1118 0011256 181.5861 178.5330 15.03362047228331
LEMUR-2-JOHANLORAN      
1 44084U 19018G   23060.18919537  .01363869  97335-3  31207-2 0  9994
2 44084  97.2719 129.9005 0008448 254.2049 105.8297 15.97541574218521
LEMUR-2-BEAUDACIOUS     
1 44085U 19018H   23060.17783079  .00085790  00000+0  15113-2 0  9994
2 44085  97.2738 124.6451 0007272 259.9837 100.0594 15.50103902218188
LEMUR-2-ELHAM           
1 44086U 19018J   23060.15419736  .00127751  00000+0  16658-2 0  9998
2 44086  97.2848 127.5009 0008878 257.7467 102.2796 15.58232349218342
LEMUR-2-VICTOR-ANDREW   
1 44087U 19018K   23060.18257810  .00533539  00000+0  20024-2 0  9992
2 44087  97.2787 130.6649 0008119 241.6059 118.4394 15.86531886218563
LEMUR-2-LILLYJO         
1 44396U 19038L   23059.92973849  .00027613  00000+0  99890-3 0  9993
2 44396  97.6464  38.3550 0015704 323.7583  36.2590 15.28280896202105
LEMUR-2-WANLI           
1 44402U 19038S   23059.89798189  .00031651  00000+0  11256-2 0  9995
2 44402  97.6447  37.9517 0014619 325.1034  34.9246 15.28827785202076
LEMUR-2-MORAG           
1 44403U 19038T   23059.92792419  .00024510  00000+0  93958-3 0  9996
2 44403  97.6529  38.8750 0016222 323.9515  36.0628 15.26383038202094
LEMUR-2-DUSTINTHEWIND   
1 44405U 19038V   23059.91519095  .00027409  00000+0  10179-2 0  9997
2 44405  97.6497  37.6850 0016514 323.2991  36.7115 15.27405420202069
LEMUR-2-ALEX-MADDY      
1 44407U 19038X   23059.93338534  .00023170  00000+0  97760-3 0  9991
2 44407  97.6589  37.0487 0017203 333.7026  26.3335 15.23162567201947
LEMUR-2-EJATTA          
1 44409U 19038Z   23059.89149760  .00029025  00000+0  10552-2 0  9997
2 44409  97.6479  38.6279 0015141 316.7817  43.2233 15.28115908202130
